EUTELSAT 16A            
1 37836U 11057A   25200.34514306  .00000108  00000+0  00000+0 0  9993
2 37836   0.0633  10.3774 0005333 108.3500 318.8831  1.00272080  3997
EUTELSAT 21B            
1 38992U 12062B   25200.56034457  .00000134  00000+0  00000+0 0  9991
2 38992   0.0661  10.5336 0002971 108.9558  41.4050  1.00272790 46494
EUTELSAT 70B            
1 39020U 12069A   25200.60005106 -.00000040  00000+0  00000+0 0  9992
2 39020   0.0619  13.5386 0003552 104.4839 106.1062  1.00271556 46173
EUTELSAT 117 WEST A     
1 39122U 13012A   25200.53794939 -.00000009  00000+0  00000+0 0  9990
2 39122   0.0119 346.5605 0002843 141.4710 246.3829  1.00271428 45091
EUTELSAT 7B             
1 39163U 13022A   25200.55748456  .00000051  00000+0  00000+0 0  9997
2 39163   0.0701 341.1945 0003136  65.8655  98.2137  1.00269805 44624
EXPRESS-AT1             
1 39612U 14010A   25200.49578580  .00000082  00000+0  00000+0 0  9990
2 39612   0.0133  22.4017 0000213 311.9277 197.6806  1.00272169 41484
EXPRESS-AT2             
1 39613U 14010B   25200.58591061 -.00000278  00000+0  00000+0 0  9998
2 39613   0.0141 359.1818 0000248  26.3966 262.8099  1.00271081 41169
EUTELSAT 3B             
1 39773U 14030A   25200.55670456  .00000024  00000+0  00000+0 0  9998
2 39773   0.0607  12.6202 0003889 116.9229  11.5393  1.00271458 40739
